OBJECT_NAME,OBJECT_ID,EPOCH,MEAN_MOTION,ECCENTRICITY,INCLINATION,RA_OF_ASC_NODE,ARG_OF_PERICENTER,MEAN_ANOMALY,EPHEMERIS_TYPE,CLASSIFICATION_TYPE,NORAD_CAT_ID,ELEMENT_SET_NO,REV_AT_EPOCH,BSTAR,MEAN_MOTION_DOT,MEAN_MOTION_DDOT
KUIPER-00126,2025-228J,2026-05-26T22:17:17.373120,14.79930635,.0000686,51.9003,14.6204,114.1966,245.9068,0,U,65955,999,3481,.24798E-3,.167E-4,0
KUIPER-00127,2025-228K,2026-05-27T01:19:06.612960,14.79929830,.00011704,51.9016,6.5277,115.3464,244.7620,0,U,65956,999,3494,.18335154E-3,.1177E-4,0
KUIPER-00128,2025-228L,2026-05-26T20:03:04.468896,14.79934931,.0000787,51.9026,7.5631,113.2526,246.8520,0,U,65957,999,3490,.14601941E-3,.892E-5,0
KUIPER-00129,2025-228M,2026-05-27T00:13:56.531712,14.79940367,.00008799,51.9017,1.7754,104.8717,255.2343,0,U,65958,999,3500,.26351772E-3,.1789E-4,0
KUIPER-00130,2025-228N,2026-05-26T23:21:26.844768,14.79938784,.00008074,51.9039,4.4601,104.9353,255.1699,0,U,65959,999,2525,.32893379E-3,.2288E-4,0
KUIPER-00134,2025-228P,2026-05-26T19:06:57.512736,15.40688146,.00057809,51.8723,301.3440,229.5446,130.5038,0,U,65960,999,3582,.64374865E-3,.26397E-3,0
KUIPER-00135,2025-228Q,2026-05-27T00:10:04.235808,14.79941232,.00008027,51.9027,4.3677,108.5111,251.5939,0,U,65961,999,3496,.3144271E-3,.2177E-4,0
KUIPER-00136,2025-228R,2026-05-26T23:25:19.043904,14.80067578,.00009237,51.9029,1.9667,75.4933,284.6132,0,U,65962,999,3499,-.14267881E-2,-.11115E-3,0
KUIPER-00137,2025-228S,2026-05-26T23:29:12.738624,14.79939803,.00006901,51.9040,359.4370,109.8833,250.2203,0,U,65963,999,3503,.38279284E-3,.2699E-4,0
KUIPER-00138,2025-228T,2026-05-26T22:44:27.754080,14.79944514,.0000631,51.9004,357.0243,113.3882,246.7147,0,U,65964,999,3506,.63867E-3,.4652E-4,0
KUIPER-00140,2025-228U,2026-05-26T19:26:06.472032,14.79934152,.00007767,51.9009,0.2211,112.5517,247.5528,0,U,65965,999,3500,.64630528E-4,.272E-5,0
KUIPER-00141,2025-228V,2026-05-26T21:11:05.178048,14.79959495,.0000775,51.9041,354.9371,111.5387,248.5658,0,U,65966,999,3508,.59572E-3,.4326E-4,0
KUIPER-00146,2025-228W,2026-05-26T18:41:22.264224,14.79932380,.00007679,51.9043,357.9066,111.9369,248.1675,0,U,65967,999,3503,.55177595E-3,.3988E-4,0
KUIPER-00149,2025-228X,2026-05-26T22:52:13.991808,14.79932291,.00008061,51.9022,352.0301,109.4161,250.6888,0,U,65968,999,3513,.17439531E-3,.1108E-4,0
KUIPER-00154,2025-228Y,2026-05-26T20:30:15.174720,14.79940995,.00006163,51.9011,349.9618,105.3250,254.7781,0,U,65969,999,3515,.56420428E-3,.4083E-4,0
KUIPER-00157,2025-228Z,2026-05-26T18:49:08.400864,14.79935804,.00006484,51.9032,352.8998,111.2746,248.8286,0,U,65970,999,3510,.55023803E-3,.3976E-4,0
STRIX-5,2025-229A,2026-05-27T01:20:03.050304,15.04204287,.00386982,41.9293,44.5513,273.9062,85.7340,0,U,65971,999,3379,.3661286E-3,.5065E-4,0
SDA_1664,2025-230A,2026-05-27T06:15:16.947648,13.79936543,.00013397,81.3002,231.5480,101.5615,258.5690,0,U,65974,999,3088,.20594713E-3,.225E-5,0
SDA_1665,2025-230B,2026-05-27T07:17:36.755232,13.82038018,.00012371,81.3017,231.2043,106.8585,253.2706,0,U,65975,999,3091,.19666573E-3,.223E-5,0
SDA_1666,2025-230C,2026-05-24T15:46:11.820864,13.83052566,.0001231,81.2981,233.6607,189.4690,170.6443,0,U,65976,999,3054,-.61940513E-2,-.675E-4,0
SDA_1667,2025-230D,2026-05-27T05:49:19.616160,13.81462533,.00013668,81.2999,231.3752,97.8964,262.2346,0,U,65977,999,3089,.18004888E-3,.203E-5,0
SDA_1668,2025-230E,2026-05-27T07:10:28.214688,13.85379117,.00024098,81.3005,230.8500,262.8518,97.2365,0,U,65978,999,3093,.16605723E-3,.201E-5,0
SDA_1669,2025-230F,2026-05-27T06:21:04.876128,13.85119426,.00006177,81.3016,230.9725,298.1294,61.9801,0,U,65979,999,3092,-.43928534E-1,-.49405E-3,0
SDA_1670,2025-230G,2026-05-27T06:16:31.598976,13.80999139,.0001101,81.2997,231.3883,123.2005,236.9255,0,U,65980,999,3089,.31422443E-4,.45E-6,0
SDA_1671,2025-230H,2026-05-25T08:51:57.783456,13.83091840,.00006578,81.3011,232.8505,259.4711,100.6371,0,U,65981,999,3065,-.1697691E-1,-.18507E-3,0
SDA_1672,2025-230J,2026-05-27T06:43:47.847360,13.82252414,.00014325,81.3022,231.3317,110.7602,249.3707,0,U,65982,999,3090,.15728473E-3,.181E-5,0
SDA_1673,2025-230K,2026-05-27T06:47:14.676000,13.84125865,.00012359,81.3025,231.0221,117.4752,242.6530,0,U,65983,999,3092,.19810084E-3,.232E-5,0
SDA_1674,2025-230L,2026-05-27T07:19:55.979328,13.83800467,.00008432,81.3010,231.0219,224.4112,135.6977,0,U,65984,999,3092,.15986499E-3,.189E-5,0
SDA_1675,2025-230M,2026-05-27T06:34:35.671008,13.84758583,.0002694,81.2983,231.0857,190.3666,169.7436,0,U,65985,999,3091,.16429633E-3,.197E-5,0
SDA_1676,2025-230N,2026-05-27T07:07:44.340672,13.78913629,.00010629,81.3022,231.6563,126.8764,233.2487,0,U,65986,999,3088,.11036121E-3,.124E-5,0
