KUIPER-00126            
1 65955U 25228J   26146.92867330  .00001670  00000+0  24798-3 0  9992
2 65955  51.9003  14.6204 0000686 114.1966 245.9068 14.79930635 34812
KUIPER-00127            
1 65956U 25228K   26147.05493765  .00001177  00000+0  18335-3 0  9997
2 65956  51.9016   6.5277 0001170 115.3464 244.7620 14.79929830 34942
KUIPER-00128            
1 65957U 25228L   26146.83546839  .00000892  00000+0  14602-3 0  9990
2 65957  51.9026   7.5631 0000787 113.2526 246.8520 14.79934931 34904
KUIPER-00129            
1 65958U 25228M   26147.00968208  .00001789  00000+0  26352-3 0  9990
2 65958  51.9017   1.7754 0000879 104.8717 255.2343 14.79940367 35006
KUIPER-00130            
1 65959U 25228N   26146.97322737  .00002288  00000+0  32893-3 0  9999
2 65959  51.9039   4.4601 0000807 104.9353 255.1699 14.79938784 25259
KUIPER-00134            
1 65960U 25228P   26146.79649899  .00026397  00000+0  64375-3 0  9999
2 65960  51.8723 301.3440 0005780 229.5446 130.5038 15.40688146 35822
KUIPER-00135            
1 65961U 25228Q   26147.00699347  .00002177  00000+0  31443-3 0  9998
2 65961  51.9027   4.3677 0000802 108.5111 251.5939 14.79941232 34965
KUIPER-00136            
1 65962U 25228R   26146.97591486 -.00011115  00000+0 -14268-2 0  9998
2 65962  51.9029   1.9667 0000923  75.4933 284.6132 14.80067578 34997
KUIPER-00137            
1 65963U 25228S   26146.97861966  .00002699  00000+0  38279-3 0  9996
2 65963  51.9040 359.4370 0000690 109.8833 250.2203 14.79939803 35036
KUIPER-00138            
1 65964U 25228T   26146.94754345  .00004652  00000+0  63867-3 0  9998
2 65964  51.9004 357.0243 0000631 113.3882 246.7147 14.79944514 35064
KUIPER-00140            
1 65965U 25228U   26146.80979713  .00000272  00000+0  64631-4 0  9997
2 65965  51.9009   0.2211 0000776 112.5517 247.5528 14.79934152 35001
KUIPER-00141            
1 65966U 25228V   26146.88269882  .00004326  00000+0  59572-3 0  9996
2 65966  51.9041 354.9371 0000775 111.5387 248.5658 14.79959495 35087
KUIPER-00146            
1 65967U 25228W   26146.77872991  .00003988  00000+0  55178-3 0  9997
2 65967  51.9043 357.9066 0000767 111.9369 248.1675 14.79932380 35033
KUIPER-00149            
1 65968U 25228X   26146.95293972  .00001108  00000+0  17440-3 0  9996
2 65968  51.9022 352.0301 0000806 109.4161 250.6888 14.79932291 35131
KUIPER-00154            
1 65969U 25228Y   26146.85434230  .00004083  00000+0  56420-3 0  9996
2 65969  51.9011 349.9618 0000616 105.3250 254.7781 14.79940995 35158
KUIPER-00157            
1 65970U 25228Z   26146.78412501  .00003976  00000+0  55024-3 0  9996
2 65970  51.9032 352.8998 0000648 111.2746 248.8286 14.79935804 35100
STRIX-5                 
1 65971U 25229A   26147.05559086  .00005065  00000+0  36613-3 0  9993
2 65971  41.9293  44.5513 0038698 273.9062  85.7340 15.04204287 33795
SDA_1664                
1 65974U 25230A   26147.26061282  .00000225  00000+0  20595-3 0  9992
2 65974  81.3002 231.5480 0001339 101.5615 258.5690 13.79936543 30889
SDA_1665                
1 65975U 25230B   26147.30389763  .00000223  00000+0  19667-3 0  9991
2 65975  81.3017 231.2043 0001237 106.8585 253.2706 13.82038018 30917
SDA_1666                
1 65976U 25230C   26144.65708126 -.00006750  00000+0 -61941-2 0  9999
2 65976  81.2981 233.6607 0001231 189.4690 170.6443 13.83052566 30541
SDA_1667                
1 65977U 25230D   26147.24258815  .00000203  00000+0  18005-3 0  9992
2 65977  81.2999 231.3752 0001366  97.8964 262.2346 13.81462533 30897
SDA_1668                
1 65978U 25230E   26147.29893767  .00000201  00000+0  16606-3 0  9992
2 65978  81.3005 230.8500 0002409 262.8518  97.2365 13.85379117 30931
SDA_1669                
1 65979U 25230F   26147.26463977 -.00049405  00000+0 -43929-1 0  9993
2 65979  81.3016 230.9725 0000617 298.1294  61.9801 13.85119426 30923
SDA_1670                
1 65980U 25230G   26147.26147684  .00000045  00000+0  31422-4 0  9992
2 65980  81.2997 231.3883 0001101 123.2005 236.9255 13.80999139 30894
SDA_1671                
1 65981U 25230H   26145.36941879 -.00018507  00000+0 -16977-1 0  9999
2 65981  81.3011 232.8505 0000657 259.4711 100.6371 13.83091840 30656
SDA_1672                
1 65982U 25230J   26147.28041490  .00000181  00000+0  15728-3 0  9995
2 65982  81.3022 231.3317 0001432 110.7602 249.3707 13.82252414 30901
SDA_1673                
1 65983U 25230K   26147.28280875  .00000232  00000+0  19810-3 0  9991
2 65983  81.3025 231.0221 0001235 117.4752 242.6530 13.84125865 30920
SDA_1674                
1 65984U 25230L   26147.30550902  .00000189  00000+0  15986-3 0  9997
2 65984  81.3010 231.0219 0000843 224.4112 135.6977 13.83800467 30928
SDA_1675                
1 65985U 25230M   26147.27402397  .00000197  00000+0  16430-3 0  9992
2 65985  81.2983 231.0857 0002694 190.3666 169.7436 13.84758583 30915
SDA_1676                
1 65986U 25230N   26147.29704098  .00000124  00000+0  11036-3 0  9995
2 65986  81.3022 231.6563 0001062 126.8764 233.2487 13.78913629 30888
